{"fetched_at":"2026-07-15T06:35:50.422Z","source":"https://celestrak.org/NORAD/elements/gp.php?GROUP=stations&FORMAT=JSON","constellation":"crewed-vehicles","records":[{"OBJECT_NAME":"SOYUZ-MS 28","OBJECT_ID":"2025-275A","EPOCH":"2026-07-14T20:43:00.740064","CLASSIFICATION_TYPE":"U","MEAN_MOTION":15.49010075,"ECCENTRICITY":0.00066869,"INCLINATION":51.6309,"RA_OF_ASC_NODE":163.1264,"ARG_OF_PERICENTER":296.7335,"MEAN_ANOMALY":63.2969,"EPHEMERIS_TYPE":0,"NORAD_CAT_ID":66664,"ELEMENT_SET_NO":999,"REV_AT_EPOCH":64616,"BSTAR":0.000065608069,"MEAN_MOTION_DOT":0.00003167,"MEAN_MOTION_DDOT":0},{"OBJECT_NAME":"CREW DRAGON 12","OBJECT_ID":"2026-031A","EPOCH":"2026-07-14T20:43:00.740064","CLASSIFICATION_TYPE":"U","MEAN_MOTION":15.49010075,"ECCENTRICITY":0.00066869,"INCLINATION":51.6309,"RA_OF_ASC_NODE":163.1264,"ARG_OF_PERICENTER":296.7335,"MEAN_ANOMALY":63.2969,"EPHEMERIS_TYPE":0,"NORAD_CAT_ID":67796,"ELEMENT_SET_NO":999,"REV_AT_EPOCH":57604,"BSTAR":0.000065608069,"MEAN_MOTION_DOT":0.00003167,"MEAN_MOTION_DDOT":0},{"OBJECT_NAME":"SHENZHOU-23 (SZ-23)","OBJECT_ID":"2026-113A","EPOCH":"2026-07-14T21:28:01.171200","CLASSIFICATION_TYPE":"U","MEAN_MOTION":15.58084991,"ECCENTRICITY":0.00022567,"INCLINATION":41.4689,"RA_OF_ASC_NODE":153.6564,"ARG_OF_PERICENTER":302.1088,"MEAN_ANOMALY":57.953,"EPHEMERIS_TYPE":0,"NORAD_CAT_ID":69180,"ELEMENT_SET_NO":999,"REV_AT_EPOCH":29687,"BSTAR":0.000020034416,"MEAN_MOTION_DOT":0.0000122,"MEAN_MOTION_DDOT":0}]}
