SOYUZ-MS 28             
1 66664U 25275A   26195.86320301  .00003167  00000+0  65608-4 0  9990
2 66664  51.6309 163.1264 0006686 296.7335  63.2969 15.49010075646168
CREW DRAGON 12          
1 67796U 26031A   26195.86320301  .00003167  00000+0  65608-4 0  9998
2 67796  51.6309 163.1264 0006686 296.7335  63.2969 15.49010075576044
SHENZHOU-23 (SZ-23)     
1 69180U 26113A   26195.89445800  .00001220  00000+0  20034-4 0  9995
2 69180  41.4689 153.6564 0002256 302.1088  57.9530 15.58084991296876
